NORAD_CAT_ID,OBJECT_NAME,OBJECT_TYPE,EPOCH,MEAN_MOTION,ECCENTRICITY,INCLINATION,RA_OF_ASC_NODE,ARG_OF_PERICENTER,MEAN_ANOMALY,BSTAR,MEAN_MOTION_DOT,MEAN_MOTION_DDOT,TLE_LINE0,TLE_LINE1,TLE_LINE2,SEMIMAJOR_AXIS,PERIOD,APOGEE,PERIGEE,DECAYED
55951.0,STARLINK-5908,PAYLOAD,2024-01-31 03:24:08,14.98331131,0.0002789,69.9995,62.0568,263.6191,96.465,-9.8003e-06,-2.1e-06,0.0,0 STARLINK-5908,1 55951U 23037AP  24031.14176003 -.00000210  00000-0 -98003-5 0  9992,2 55951  69.9995  62.0568 0002789 263.6191  96.4650 14.98331131 49204,6950.189,96.107,573.993,570.116,0.0
55951.0,STARLINK-5908,PAYLOAD,2024-01-31 11:24:48,14.98331674,0.0002758,69.9996,61.2153,262.5817,97.5029,1.8534e-06,-7.1e-07,0.0,0 STARLINK-5908,1 55951U 23037AP  24031.47555904 -.00000071  00000-0  18534-5 0  9994,2 55951  69.9996  61.2153 0002758 262.5817  97.5029 14.98331674 48916,6950.188,96.107,573.97,570.136,0.0
55951.0,STARLINK-5908,PAYLOAD,2024-02-01 03:26:09,14.98326539,0.0002691,69.9997,59.5326,257.4166,102.6692,2.3023e-05,1.82e-06,0.0,0 STARLINK-5908,1 55951U 23037AP  24032.14316144  .00000182  00000-0  23023-4 0  9990,2 55951  69.9997  59.5326 0002691 257.4166 102.6692 14.98326539 49352,6950.204,96.107,573.939,570.198,0.0
55951.0,STARLINK-5908,PAYLOAD,2024-02-01 11:26:49,14.98326686,0.0002721,69.9996,58.6902,264.2641,95.8208,2.5458e-05,2.11e-06,0.0,0 STARLINK-5908,1 55951U 23037AP  24032.47696220  .00000211  00000-0  25458-4 0  9999,2 55951  69.9996  58.6902 0002721 264.2641  95.8208 14.98326686 49066,6950.203,96.107,573.959,570.177,0.0
55951.0,STARLINK-5908,PAYLOAD,2024-02-02 03:28:10,14.98329455,0.0002736,69.9995,57.0052,271.9964,88.0881,2.0172e-06,-6.9e-07,0.0,0 STARLINK-5908,1 55951U 23037AP  24033.14456173 -.00000069  00000-0  20172-5 0  9996,2 55951  69.9995  57.0052 0002736 271.9964  88.0881 14.98329455 49500,6950.195,96.107,573.961,570.158,0.0
55951.0,STARLINK-5908,PAYLOAD,2024-02-02 11:28:50,14.98329512,0.0002737,69.9996,56.1638,270.9767,89.1079,2.1292e-06,-6.8e-07,0.0,0 STARLINK-5908,1 55951U 23037AP  24033.47836174 -.00000068  00000-0  21292-5 0  9998,2 55951  69.9996  56.1638 0002737 270.9767  89.1079 14.98329512 49215,6950.194,96.107,573.962,570.157,0.0
55951.0,STARLINK-5908,PAYLOAD,2024-02-03 03:30:10,14.98330425,0.0002825,69.9993,54.4801,270.9299,89.1536,1.8932e-05,1.33e-06,0.0,0 STARLINK-5908,1 55951U 23037AP  24034.14596030  .00000133  00000-0  18932-4 0  9995,2 55951  69.9993  54.4801 0002825 270.9299  89.1536 14.98330425 49654,6950.192,96.107,574.02,570.093,0.0
55951.0,STARLINK-5908,PAYLOAD,2024-02-03 11:30:51,14.98331032,0.0002831,69.9994,53.6386,270.6799,89.4035,2.4028e-05,1.94e-06,0.0,0 STARLINK-5908,1 55951U 23037AP  24034.47975972  .00000194  00000-0  24028-4 0  9997,2 55951  69.9994  53.6386 0002831 270.6799  89.4035 14.98331032 49363,6950.19,96.107,574.022,570.087,0.0
55951.0,STARLINK-5908,PAYLOAD,2024-02-04 03:32:11,14.983317,0.0002842,69.9993,51.9552,270.5024,89.581,3.6767e-05,3.46e-06,0.0,0 STARLINK-5908,1 55951U 23037AP  24035.14735787  .00000346  00000-0  36767-4 0  9992,2 55951  69.9993  51.9552 0002842 270.5024  89.5810 14.98331700 49803,6950.188,96.107,574.028,570.077,0.0
55951.0,STARLINK-5908,PAYLOAD,2024-02-04 09:56:43,14.9833325,0.0002816,69.9993,51.282,270.1273,89.9564,5.3205e-05,5.42e-06,0.0,0 STARLINK-5908,1 55951U 23037AP  24035.41439612  .00000542  00000-0  53205-4 0  9994,2 55951  69.9993  51.2820 0002816 270.1273  89.9564 14.98333250 49506,6950.183,96.107,574.005,570.091,0.0
55951.0,STARLINK-5908,PAYLOAD,2024-02-05 03:34:12,14.98328293,0.0002738,69.9995,49.4307,268.6668,91.4177,-8.7633e-06,-1.98e-06,0.0,0 STARLINK-5908,1 55951U 23037AP  24036.14875984 -.00000198  00000-0 -87633-5 0  9993,2 55951  69.9995  49.4307 0002738 268.6668  91.4177 14.98328293 49958,6950.198,96.107,573.966,570.16,0.0
55951.0,STARLINK-5908,PAYLOAD,2024-02-05 09:58:45,14.9832694,0.0002781,69.9996,48.7576,266.8276,93.2565,-2.5718e-05,-4e-06,0.0,0 STARLINK-5908,1 55951U 23037AP  24036.41580129 -.00000400  00000-0 -25718-4 0  9998,2 55951  69.9996  48.7576 0002781 266.8276  93.2565 14.98326940 49657,6950.202,96.107,574.0,570.135,0.0
55951.0,STARLINK-5908,PAYLOAD,2024-02-06 03:36:13,14.98331305,0.0002906,69.9994,46.906,268.4415,91.6412,-3.3225e-05,-4.89e-06,0.0,0 STARLINK-5908,1 55951U 23037AP  24037.15015850 -.00000489  00000-0 -33225-4 0  9993,2 55951  69.9994  46.9060 0002906 268.4415  91.6412 14.98331305 50101,6950.189,96.107,574.074,570.034,0.0
55951.0,STARLINK-5908,PAYLOAD,2024-02-06 10:00:45,14.98333465,0.0002912,69.9994,46.2326,268.7014,91.3812,-5.9927e-06,-1.65e-06,0.0,0 STARLINK-5908,1 55951U 23037AP  24037.41719608 -.00000165  00000-0 -59927-5 0  9993,2 55951  69.9994  46.2326 0002912 268.7014  91.3812 14.98333465 49809,6950.182,96.107,574.071,570.023,0.0
55951.0,STARLINK-5908,PAYLOAD,2024-02-07 03:38:14,14.98328949,0.0002927,69.9995,44.3802,266.8303,93.2521,3.9762e-05,3.81e-06,0.0,0 STARLINK-5908,1 55951U 23037AP  24038.15155696  .00000381  00000-0  39762-4 0  9998,2 55951  69.9995  44.3802 0002927 266.8303  93.2521 14.98328949 50254,6950.196,96.107,574.095,570.027,0.0
55951.0,STARLINK-5908,PAYLOAD,2024-02-07 10:02:46,14.9833215,0.0002887,69.9997,43.7073,267.0871,92.9958,7.3557e-05,7.85e-06,0.0,0 STARLINK-5908,1 55951U 23037AP  24038.41859398  .00000785  00000-0  73557-4 0  9995,2 55951  69.9997  43.7073 0002887 267.0871  92.9958 14.98332150 49951,6950.186,96.107,574.058,570.045,0.0
55951.0,STARLINK-5908,PAYLOAD,2024-02-07 18:03:27,14.98329495,0.0002863,69.9999,42.8645,269.414,90.6691,1.8982e-05,1.34e-06,0.0,0 STARLINK-5908,1 55951U 23037AP  24038.75239704  .00000134  00000-0  18982-4 0  9994,2 55951  69.9999  42.8645 0002863 269.4140  90.6691 14.98329495 50002,6950.194,96.107,574.049,570.07,0.0
55951.0,STARLINK-5908,PAYLOAD,2024-02-08 10:04:47,14.98329023,0.0002888,69.9998,41.1821,271.2001,88.8827,-7.047e-06,-1.77e-06,0.0,0 STARLINK-5908,1 55951U 23037AP  24039.41999860 -.00000177  00000-0 -70470-5 0  9994,2 55951  69.9998  41.1821 0002888 271.2001  88.8827 14.98329023 50448,6950.196,96.107,574.068,570.054,0.0
55951.0,STARLINK-5908,PAYLOAD,2024-02-09 10:06:48,14.98336859,0.0002723,70.0001,38.6571,269.5243,90.5604,7.1568e-06,-8e-08,0.0,0 STARLINK-5908,1 55951U 23037AP  24040.42139250 -.00000008  00000-0  71568-5 0  9997,2 55951  70.0001  38.6571 0002723 269.5243  90.5604 14.98336859 50599,6950.172,96.107,573.929,570.144,0.0
55951.0,STARLINK-5908,PAYLOAD,2024-02-10 03:44:17,14.98326572,0.000272,70.0002,36.8058,267.0103,93.0745,1.0212e-05,2.9e-07,0.0,0 STARLINK-5908,1 55951U 23037AP  24041.15575861  .00000029  00000-0  10212-4 0  9990,2 55951  70.0002  36.8058 0002720 267.0103  93.0745 14.98326572 50703,6950.203,96.107,573.959,570.178,0.0
55951.0,STARLINK-5908,PAYLOAD,2024-02-10 10:08:49,14.98327715,0.0002522,70.0006,36.1327,264.9527,95.1345,2.6917e-05,2.28e-06,0.0,0 STARLINK-5908,1 55951U 23037AP  24041.42279821  .00000228  00000-0  26917-4 0  9997,2 55951  70.0006  36.1327 0002522 264.9527  95.1345 14.98327715 50401,6950.2,96.107,573.818,570.312,0.0
55951.0,STARLINK-5908,PAYLOAD,2024-02-11 03:46:18,14.98330089,0.0002799,70.0001,34.2809,265.1231,94.9609,-4.6434e-06,-1.48e-06,0.0,0 STARLINK-5908,1 55951U 23037AP  24042.15715700 -.00000148  00000-0 -46434-5 0  9999,2 55951  70.0001  34.2809 0002799 265.1231  94.9609 14.98330089 50858,6950.193,96.107,574.003,570.112,0.0
55951.0,STARLINK-5908,PAYLOAD,2024-02-11 10:10:50,14.98330949,0.0002668,70.0006,33.6079,260.4464,99.6394,3.0224e-05,2.68e-06,0.0,0 STARLINK-5908,1 55951U 23037AP  24042.42419523  .00000268  00000-0  30224-4 0  9993,2 55951  70.0006  33.6079 0002668 260.4464  99.6394 14.98330949 50551,6950.19,96.107,573.909,570.201,0.0
55951.0,STARLINK-5908,PAYLOAD,2024-02-12 03:48:19,14.98331152,0.0002751,70.0006,31.7563,262.9563,97.1283,4.5708e-05,4.52e-06,0.0,0 STARLINK-5908,1 55951U 23037AP  24043.15855361  .00000452  00000-0  45708-4 0  9996,2 55951  70.0006  31.7563 0002751 262.9563  97.1283 14.98331152 51006,6950.189,96.107,573.966,570.142,0.0
55951.0,STARLINK-5908,PAYLOAD,2024-02-12 08:36:42,14.98334305,0.0002703,70.0008,31.2515,260.2504,99.835,8.2862e-05,8.96e-06,0.0,0 STARLINK-5908,1 55951U 23037AP  24043.35883033  .00000896  00000-0  82862-4 0  9999,2 55951  70.0008  31.2515 0002703 260.2504  99.8350 14.98334305 50694,6950.18,96.107,573.923,570.166,0.0
55951.0,STARLINK-5908,PAYLOAD,2024-02-13 03:50:20,14.98325429,0.0002557,70.002,29.2347,242.4382,117.6517,-3.2146e-05,-4.76e-06,0.0,0 STARLINK-5908,1 55951U 23037AP  24044.15995863 -.00000476  00000-0 -32146-4 0  9999,2 55951  70.0020  29.2347 0002557 242.4382 117.6517 14.98325429 51154,6950.207,96.107,573.849,570.295,0.0
55951.0,STARLINK-5908,PAYLOAD,2024-02-13 08:38:44,14.98325003,0.0002554,70.0019,28.7296,243.8149,116.2748,-3.5939e-05,-5.22e-06,0.0,0 STARLINK-5908,1 55951U 23037AP  24044.36023976 -.00000522  00000-0 -35939-4 0  9994,2 55951  70.0019  28.7296 0002554 243.8149 116.2748 14.98325003 50846,6950.208,96.107,573.848,570.298,0.0
55951.0,STARLINK-5908,PAYLOAD,2024-02-13 21:27:48,14.98330755,0.0002848,70.0003,27.3781,266.0577,94.0257,1.1772e-05,4.7e-07,0.0,0 STARLINK-5908,1 55951U 23037AP  24044.89431534  .00000047  00000-0  11772-4 0  9994,2 55951  70.0003  27.3781 0002848 266.0577  94.0257 14.98330755 50928,6950.191,96.107,574.035,570.076,0.0
55951.0,STARLINK-5908,PAYLOAD,2024-02-14 05:28:28,14.98335672,0.0002839,70.0004,26.5374,266.3125,93.7709,3.499e-05,3.25e-06,0.0,0 STARLINK-5908,1 55951U 23037AP  24045.22811129  .00000325  00000-0  34990-4 0  9990,2 55951  70.0004  26.5374 0002839 266.3125  93.7709 14.98335672 51315,6950.175,96.107,574.014,570.067,0.0
55951.0,STARLINK-5908,PAYLOAD,2024-02-14 08:40:44,14.98337971,0.0002789,70.0006,26.2005,265.65,94.4341,5.2399e-05,5.32e-06,0.0,0 STARLINK-5908,1 55951U 23037AP  24045.36162884  .00000532  00000-0  52399-4 0  9995,2 55951  70.0006  26.2005 0002789 265.6500  94.4341 14.98337971 50995,6950.168,96.106,573.972,570.095,0.0
